STARLINK-34890          
1 65760U 25216AC  25282.91667824 -.01799136  00000+0 -13848-1 0  9994
2 65760  53.1572 317.3143 0001099 114.7549 185.8470 15.74454937  3411
STARLINK-34889          
1 65761U 25216AD  25282.91667824 -.01782819  00000+0 -13712-1 0  9995
2 65761  53.1572 317.3104 0000740  96.1028 206.4174 15.74446249  3470
KUIPER-00120            
1 65762U 25217A   25282.91667824 -.00006718  00000+0 -18750-3 0  9992
2 65762  51.8644  13.0641 0009955 166.2723 280.3872 15.34341294  3218
KUIPER-00132            
1 65763U 25217B   25282.91667824 -.00006536  00000+0 -17718-3 0  9994
2 65763  51.8658  12.9755 0006558 151.7978 339.3770 15.35223965  1300
KUIPER-00133            
1 65764U 25217C   25282.91667824 -.00009217  00000+0 -26031-3 0  9992
2 65764  51.8665  13.0418 0008622 161.0774 297.3830 15.34507784  2864
KUIPER-00139            
1 65765U 25217D   25282.91667824 -.00005651  00000+0 -15264-3 0  9997
2 65765  51.8683  12.9967 0007161 156.0379 325.1566 15.35023812  3407
KUIPER-00142            
1 65766U 25217E   25282.91667824 -.00011242  00000+0 -30418-3 0  9999
2 65766  51.8710  12.8718 0003486 118.8977  63.8551 15.36123924  2302
KUIPER-00145            
1 65767U 25217F   25282.91667824 -.00009259  00000+0 -24940-3 0  9998
2 65767  51.8725  12.8899 0004142 127.8499  45.3028 15.36014680  1309
KUIPER-00147            
1 65768U 25217G   25282.91667824 -.00009113  00000+0 -25235-3 0  9996
2 65768  51.8670  12.9867 0007362 149.5726 336.2614 15.35112834  3164
KUIPER-00148            
1 65769U 25217H   25282.91667824 -.00008112  00000+0 -22850-3 0  9995
2 65769  51.8629  13.0560 0010138 162.2200 287.9127 15.34379368  3319
KUIPER-00150            
1 65770U 25217J   25282.91667824 -.00008436  00000+0 -23700-3 0  9991
2 65770  51.8615  13.0421 0009297 162.8378 293.6620 15.34534607  1788
KUIPER-00151            
1 65771U 25217K   25282.91667824 -.00007601  00000+0 -20409-3 0  9998
2 65771  51.8706  12.9154 0005494 133.4149  27.8723 15.35800298  3377
KUIPER-00152            
1 65772U 25217L   25282.91667824 -.00010921  00000+0 -28749-3 0  9993
2 65772  51.8741  12.7865 0002216  67.4094 152.9486 15.36937468  3106
KUIPER-00153            
1 65773U 25217M   25282.91667824 -.00008204  00000+0 -22886-3 0  9991
2 65773  51.8650  13.0240 0008688 156.1524 310.7081 15.34717859  3226
KUIPER-00155            
1 65774U 25217N   25282.91667824 -.00006503  00000+0 -17487-3 0  9993
2 65774  51.8677  12.9478 0005723 144.8556   0.3897 15.35470874  1806
KUIPER-00156            
1 65775U 25217P   25282.91667824 -.00010104  00000+0 -26783-3 0  9995
2 65775  51.8739  12.8218 0002607  92.9320 111.6117 15.36627900  3108
KUIPER-00158            
1 65776U 25217Q   25282.91667824 -.00007827  00000+0 -21121-3 0  9995
2 65776  51.8714  12.9251 0005361 139.9296  16.4427 15.35697311  1302
KUIPER-00163            
1 65777U 25217R   25282.91667824 -.00008468  00000+0 -23543-3 0  9998
2 65777  51.8637  13.0088 0008185 157.1341 316.8033 15.34875221  3339
KUIPER-00165            
1 65778U 25217S   25282.91667824 -.00008266  00000+0 -22075-3 0  9994
2 65778  51.8718  12.8806 0004316 118.4582  59.6012 15.36111232  3105
KUIPER-00166            
1 65779U 25217T   25282.91667824 -.00009496  00000+0 -25273-3 0  9994
2 65779  51.8730  12.8473 0003478 101.0647  92.7621 15.36421544  3405
KUIPER-00167            
1 65780U 25217U   25282.91667824 -.00009012  00000+0 -24767-3 0  9997
2 65780  51.8699  12.9636 0006257 148.5842 349.0906 15.35341623  3158
KUIPER-00168            
1 65781U 25217V   25282.91667824 -.00007972  00000+0 -20606-3 0  9999
2 65781  51.8741  12.7700 0001736  43.4027 187.0707 15.37064513  1308
KUIPER-00169            
1 65782U 25217W   25282.91667824 -.00009042  00000+0 -24087-3 0  9997
2 65782  51.8734  12.8558 0003261 113.8186  75.2047 15.36325327  2809
KUIPER-00170            
1 65783U 25217X   25282.91667824 -.00006440  00000+0 -17323-3 0  9992
2 65783  51.8687  12.9527 0006577 142.6499   0.2532 15.35433375  1307
KUIPER-00171            
1 65784U 25217Y   25282.91667824 -.00008708  00000+0 -23400-3 0  9995
2 65784  51.8692  12.9003 0004659 133.5325  35.3110 15.35995643  2357
KUIPER-00172            
1 65785U 25217Z   25282.91667824 -.00009968  00000+0 -26323-3 0  9992
2 65785  51.8738  12.8111 0002550  88.6798 121.9760 15.36726938  2500
KUIPER-00173            
1 65786U 25217AA  25282.91667824 -.00010734  00000+0 -28622-3 0  9990
2 65786  51.8724  12.8382 0002821 103.1184  95.7176 15.36519142  2640
KUIPER-00174            
1 65787U 25217AB  25282.91667824 -.00010394  00000+0 -27223-3 0  9999
2 65787  51.8740  12.7774 0002375  50.6584 175.2057 15.37031650  2957
KUIPER-00176            
1 65788U 25217AC  25282.91667824 -.00010763  00000+0 -28480-3 0  9996
2 65788  51.8733  12.8074 0001924  72.2170 141.0070 15.36761724  1804
STARLINK-35330          
1 65791U 25218A   25282.91667824 -.02253488  00000+0 -23229-1 0  9990
2 65791  97.6018 142.9257 0001776 105.1547 213.0105 15.68335603  3415
STARLINK-35373          
1 65792U 25218B   25282.91667824 -.02246283  00000+0 -23146-1 0  9994
2 65792  97.6017 142.9269 0001807 109.7700 210.3162 15.68331769  3416
STARLINK-35383          
1 65793U 25218C   25282.91667824 -.02222129  00000+0 -22879-1 0  9990
2 65793  97.6019 142.9287 0001978 106.1594 217.7846 15.68307889  3416
STARLINK-35378          
1 65794U 25218D   25282.91667824 -.02246082  00000+0 -23146-1 0  9993
2 65794  97.6016 142.9287 0001693 110.9880 214.8613 15.68331313  3159
STARLINK-35406          
1 65795U 25218E   25282.91667824 -.02242628  00000+0 -23107-1 0  9993
2 65795  97.6015 142.9273 0001847 105.7952 216.2165 15.68326952  3417
STARLINK-35390          
1 65796U 25218F   25282.91667824 -.02247537  00000+0 -23161-1 0  9998
2 65796  97.6020 142.9317 0001697 111.6297 218.0577 15.68333858  3302
STARLINK-35412          
1 65797U 25218G   25282.91667824 -.02247115  00000+0 -23158-1 0  9997
2 65797  97.6017 142.9323 0001642 108.2261 223.3849 15.68331969  3413
STARLINK-35414          
1 65798U 25218H   25282.91667824 -.02249245  00000+0 -23181-1 0  9990
2 65798  97.6019 142.9309 0001673 105.8804 221.8892 15.68333702  3418
STARLINK-35357          
1 65799U 25218J   25282.91667824 -.02247407  00000+0 -23160-1 0  9996
2 65799  97.6017 142.9331 0001744 105.4494 230.0029 15.68332178  3412
STARLINK-35300          
1 65800U 25218K   25282.91667824 -.02251461  00000+0 -23208-1 0  9997
2 65800  97.6009 142.9321 0001604 105.4044 228.1286 15.68334435  3265
STARLINK-35296          
1 65801U 25218L   25282.91667824 -.02249445  00000+0 -23184-1 0  9990
2 65801  97.6013 142.9344 0001675 108.3165 230.9765 15.68333684  3415
STARLINK-34919          
1 65802U 25218M   25282.91667824 -.02244568  00000+0 -23130-1 0  9993
2 65802  97.6014 142.9338 0001617 103.3121 234.0632 15.68329814  3411
STARLINK-35286          
1 65803U 25218N   25282.91667824 -.02253853  00000+0 -23233-1 0  9995
2 65803  97.6015 142.9355 0001686 106.6729 234.5388 15.68337501  3413
STARLINK-35266          
1 65804U 25218P   25282.91667824 -.02242424  00000+0 -23105-1 0  9996
2 65804  97.6016 142.9364 0001689 100.9575 242.1800 15.68328093  3414
STARLINK-35273          
1 65805U 25218Q   25282.91667824 -.02217626  00000+0 -22835-1 0  9992
2 65805  97.6006 142.9363 0001571 100.4581 244.6204 15.68302671  3414
STARLINK-35047          
1 65806U 25218R   25282.91667824 -.02250447  00000+0 -23195-1 0  9991
2 65806  97.6017 142.9382 0001631 102.1634 246.7315 15.68335252  3410
STARLINK-35285          
1 65807U 25218S   25282.91667824 -.02248310  00000+0 -23171-1 0  9992
2 65807  97.6015 142.9378 0001698 105.2019 241.7737 15.68332946  3418
STARLINK-34580          
1 65808U 25218T   25282.91667824 -.02250493  00000+0 -23195-1 0  9994
2 65808  97.6017 142.9398 0001576 102.5323 248.2822 15.68336610  3415
STARLINK-35289          
1 65809U 25218U   25282.91667824 -.02251192  00000+0 -23203-1 0  9992
2 65809  97.6010 142.9398 0001621 103.9951 248.7395 15.68336479  3303
STARLINK-35268          
1 65810U 25218V   25282.91667824 -.02252071  00000+0 -23211-1 0  9990
2 65810  97.6006 142.9415 0001722 105.0489 251.5253 15.68337436  3412
STARLINK-35224          
1 65811U 25218W   25282.91667824 -.02245375  00000+0 -23138-1 0  9998
2 65811  97.6014 142.9407 0001643 108.7661 245.8925 15.68330770  3200
STARLINK-35271          
1 65812U 25218X   25282.91667824 -.02193924  00000+0 -22576-1 0  9996
2 65812  97.6010 142.9426 0001354 108.0277 250.5083 15.68280812  3415
STARLINK-35215          
1 65813U 25218Y   25282.91667824 -.02247854  00000+0 -23168-1 0  9997
2 65813  97.6017 142.9439 0001530 102.9784 257.4424 15.68332440  3419
STARLINK-35157          
1 65814U 25218Z   25282.91667824 -.02250300  00000+0 -23193-1 0  9996
2 65814  97.6011 142.9441 0001670 102.1675 260.1710 15.68335277  3413
FENGYUN 3H              
1 65815U 25219A   25272.38650176  .00000072  00000+0  50529-4 0  9991
2 65815  98.6440 213.6393 0012698 208.4587 151.5900 14.23786065   378
CZ-4C R/B               
1 65816U 25219B   25282.94372201  .00000248  00000+0  66892-4 0  9990
2 65816  98.6335 224.6173 0121371   2.3559 357.8183 14.52821258  1910
HULIANWANG DIGUI-82     
1 65817U 25220A   25280.88296797  .00000039  00000+0  25800-4 0  9991
2 65817  86.4949 129.6606 0009464 185.7702 174.3350 13.68810511  1426
HULIANWANG DIGUI-83     
1 65818U 25220B   25280.88253443  .00000053  00000+0  42001-4 0  9991
2 65818  86.4965 129.6642 0009119 185.6212 174.4847 13.68863866  1420
HULIANWANG DIGUI-84     
1 65819U 25220C   25282.92944682  .00000035  00000+0  22218-4 0  9999
2 65819  86.4881 128.9029 0008296 172.9700 187.1576 13.67712113  1703
HULIANWANG DIGUI-85     
1 65820U 25220D   25281.46522918  .00000048  00000+0  37114-4 0  9998
2 65820  86.4932 129.4418 0008247 165.7195 194.4199 13.68595682  1505
